#aV2009  1 28  0  0   .00000000      96 DD+AD WGS84 FIT  NGA
## 1516 259200.00000000   900.00000000 54859  .0000000000000
+   31     2  3  4  5  6  7  8  9 10 11 12 13 14 15 16 17 18
+         19 20 21 22 23 24 25 26 27 28 29 30 31 32  0  0  0
+          0  0  0  0  0  0  0  0  0  0  0  0  0  0  0  0  0
+          0  0  0  0  0  0  0  0  0  0  0  0  0  0  0  0  0
+          0  0  0  0  0  0  0  0  0  0  0  0  0  0  0  0  0
++         0  0  0  0  0  0  0  0  0  0  0  0  0  0  0  0  0
++         0  0  0  0  0  0  0  0  0  0  0  0  0  0  0  0  0
++         0  0  0  0  0  0  0  0  0  0  0  0  0  0  0  0  0
++         0  0  0  0  0  0  0  0  0  0  0  0  0  0  0  0  0
++         0  0  0  0  0  0  0  0  0  0  0  0  0  0  0  0  0
%c cc cc ccc ccc cccc cccc cccc cccc ccccc ccccc ccccc ccccc
%c cc cc ccc ccc cccc cccc cccc cccc ccccc ccccc ccccc ccccc
%f  0.0000000  0.000000000  0.00000000000  0.000000000000000
%f  0.0000000  0.000000000  0.00000000000  0.000000000000000
%i    0    0    0    0      0      0      0      0         0
%i    0    0    0    0      0      0      0      0         0
/*      NGA, ST. LOUIS,MO.                                  
/*   EPHEMERIS COMPUTED FROM  3 DAYS OF DATA                
/* CCCCCCCCCCCCCCCCCCCCCCCCCCCCCCCCCCCCCCCCCCCCCCCCCCCCCCCCC
/* CCCCCCCCCCCCCCCCCCCCCCCCCCCCCCCCCCCCCCCCCCCCCCCCCCCCCCCCC
*  2009  1 28 20  0   .00000000                                                 
P  2  22442.270283 -13322.707463   3486.948399    159.555196                    
V  2   5789.182515   1415.879369 -31151.507801      -.016443                    
P  3 -10991.366228  18552.684737  14975.247094    345.333996                    
V  3  -3338.487988 -19740.531014  21930.055396       .052530                    
P  4  24917.714161  -3911.108112  -9027.117801   -316.268044                    
V  4  -9085.176668   7137.951702 -28209.213780      -.137633                    
P  5  -9055.768405 -19049.905290 -16509.327172   -607.760378                    
V  5  18649.774572   8529.635111 -20318.350950      -.486302                    
P  6 -13897.911326  14261.921386  17749.862133     77.027267                    
V  6   -852.403307 -22344.980694  17497.881981      -.132308                    
P  7  11116.154003  11190.033191  21368.376344     23.077938                    
V  7 -24500.482100  11683.413574   6515.592478      -.002731                    
P  8  22072.545768   2062.298208  14937.529181   -188.251945                    
V  8 -17134.972633   7867.798421  23661.387842      -.015417                    
P  9   6188.426706 -17753.105787 -19361.631213     37.452598                    
V  9  21290.986748  -9372.688492  16042.420034       .020357                    
P 10  12474.298826  -9345.344975  21391.037946    -10.234636                    
V 10  21757.521798  16789.248491  -4980.599811      -.005953                    
P 11  -2539.053012  19669.517291 -17714.795095      9.164371                    
V 11 -19793.727562  11101.886882  15690.799406      -.011256                    
P 12  -5118.402722 -18932.132267 -17885.754250   -321.392339                    
V 12  19360.330640  12146.796676 -18219.214422       .035266                    
P 13   5879.426470  21724.618374  13997.283768    286.636994                    
V 13  -4032.600810  17502.442706 -25247.192055       .013249                    
P 14 -14362.697860  -2279.215282 -22103.622744   -161.963102                    
V 14   3706.575433 -28038.196578    376.873548       .052462                    
P 15   6663.150822 -24859.519673   6486.838642   -248.852053                    
V 15   2144.770952   8419.938331  30257.844073      -.054516                    
P 16 -17480.046580   3909.488052  19746.139149     78.722747                    
V 16 -19302.153994 -15680.875325 -13807.045767      -.027567                    
P 17  14565.980843   5341.195397 -21524.250992     45.449311                    
V 17  -3389.485132  27225.981116   4268.813890       .010630                    
P 18 -20173.315476 -17466.038082   2238.599922    -88.674957                    
V 18   3862.323470   -822.938732  30979.379633       .036214                    
P 19  -7212.022993  25113.056460   4104.088006     33.242020                    
V 19  -2145.631892  -5609.863298  31255.587142      -.005184                    
P 20   7900.075845  19621.388523 -16216.889937     92.374690                    
V 20 -18053.685312  -9724.800279 -20670.531465      -.010842                    
P 21 -16163.849179  -8803.689265  19573.134517     31.715723                    
V 21  21852.484372 -10650.200921  12789.512583      -.018111                    
P 22 -23056.067614  -9921.921939  -8617.027191    205.943415                    
V 22  -6922.697054  -9303.345143  28655.644459      -.008316                    
P 23    748.426065  25929.960729   4939.805455    385.998604                    
V 23  -3295.863535   6070.740240 -31328.029726       .007256                    
P 24    -67.687441 -16237.615269  21195.400241    161.148967                    
V 24  24934.503348  -9249.585697  -6784.553575       .029417                    
P 25   4016.957204  15065.122934  21880.967919    205.422432                    
V 25 -23452.720591  13155.565473  -4647.118039       .255734                    
P 26  10587.624339 -20997.691567  11291.354403     40.155584                    
V 26   -230.226475  15411.148918  28156.076662       .031556                    
P 27  24298.137395  -4773.981801  10435.675791     20.117423                    
V 27  -9899.468585   7394.525496  28195.974547       .031680                    
P 28  22943.717003  11934.799164  -6350.926533    -23.724512                    
V 28   5369.511140   7031.741082  30283.697193      -.000535                    
P 29  -6341.723405 -22439.949188  12852.468693    -14.650410                    
V 29   4172.253693 -15755.218310 -25619.131593       .029356                    
P 30 -16332.840065 -18859.303293  -9589.983787    122.731748                    
V 30  11213.622606   4157.278694 -28257.959000       .024411                    
P 31 -24926.691571   6511.387326  -6506.586545    -49.464819                    
V 31   6768.802555  -5653.052502 -30455.074362      -.014976                    
P 32   -545.088986  17429.093068 -19693.173316    300.066176                    
V 32 -20348.545592 -15941.153566 -13043.717655      -.030216                    
EOF
